[{"OBJECT_NAME":"SAOCOM 1A","OBJECT_ID":"2018-076A","EPOCH":"2026-03-19T19:40:12.482688","MEAN_MOTION":14.82153244,"ECCENTRICITY":0.0001511,"INCLINATION":97.8891,"RA_OF_ASC_NODE":266.8493,"ARG_OF_PERICENTER":87.0985,"MEAN_ANOMALY":273.0401,"EPHEMERIS_TYPE":0,"CLASSIFICATION_TYPE":"U","NORAD_CAT_ID":43641,"ELEMENT_SET_NO":999,"REV_AT_EPOCH":40286,"BSTAR":0.0001322,"MEAN_MOTION_DOT":1.0e-5,"MEAN_MOTION_DDOT":0},{"OBJECT_NAME":"H-2A R/B","OBJECT_ID":"2018-084L","EPOCH":"2026-03-19T03:28:27.542208","MEAN_MOTION":15.41735802,"ECCENTRICITY":0.00246406,"INCLINATION":98.8717,"RA_OF_ASC_NODE":297.5568,"ARG_OF_PERICENTER":352.8336,"MEAN_ANOMALY":7.255,"EPHEMERIS_TYPE":0,"CLASSIFICATION_TYPE":"U","NORAD_CAT_ID":43682,"ELEMENT_SET_NO":999,"REV_AT_EPOCH":40723,"BSTAR":0.0004015335,"MEAN_MOTION_DOT":0.00017053,"MEAN_MOTION_DDOT":0},{"OBJECT_NAME":"SAOCOM 1B","OBJECT_ID":"2020-059A","EPOCH":"2026-03-19T20:25:09.179616","MEAN_MOTION":14.82145274,"ECCENTRICITY":0.0001448,"INCLINATION":97.8891,"RA_OF_ASC_NODE":265.978,"ARG_OF_PERICENTER":88.0274,"MEAN_ANOMALY":272.1105,"EPHEMERIS_TYPE":0,"CLASSIFICATION_TYPE":"U","NORAD_CAT_ID":46265,"ELEMENT_SET_NO":999,"REV_AT_EPOCH":30025,"BSTAR":5.1866e-6,"MEAN_MOTION_DOT":-1.1e-7,"MEAN_MOTION_DDOT":0},{"OBJECT_NAME":"CSS (TIANHE)","OBJECT_ID":"2021-035A","EPOCH":"2026-03-19T15:10:53.399136","MEAN_MOTION":15.61180567,"ECCENTRICITY":0.0005809,"INCLINATION":41.4667,"RA_OF_ASC_NODE":147.639,"ARG_OF_PERICENTER":335.1563,"MEAN_ANOMALY":24.8996,"EPHEMERIS_TYPE":0,"CLASSIFICATION_TYPE":"U","NORAD_CAT_ID":48274,"ELEMENT_SET_NO":999,"REV_AT_EPOCH":27916,"BSTAR":0.00023901,"MEAN_MOTION_DOT":0.00020528,"MEAN_MOTION_DDOT":0},{"OBJECT_NAME":"COSMOS 2550","OBJECT_ID":"2021-056A","EPOCH":"2026-03-19T21:14:52.770336","MEAN_MOTION":15.33828194,"ECCENTRICITY":0.0008158,"INCLINATION":67.1448,"RA_OF_ASC_NODE":10.041,"ARG_OF_PERICENTER":269.384,"MEAN_ANOMALY":90.638,"EPHEMERIS_TYPE":0,"CLASSIFICATION_TYPE":"U","NORAD_CAT_ID":48865,"ELEMENT_SET_NO":999,"REV_AT_EPOCH":26502,"BSTAR":-1.1889e-7,"MEAN_MOTION_DOT":-1.96e-6,"MEAN_MOTION_DDOT":0},{"OBJECT_NAME":"CZ-2C R/B","OBJECT_ID":"2022-058K","EPOCH":"2026-03-19T19:07:06.284928","MEAN_MOTION":15.5492223,"ECCENTRICITY":0.0041856,"INCLINATION":50.1871,"RA_OF_ASC_NODE":266.27,"ARG_OF_PERICENTER":243.9541,"MEAN_ANOMALY":115.7118,"EPHEMERIS_TYPE":0,"CLASSIFICATION_TYPE":"U","NORAD_CAT_ID":52794,"ELEMENT_SET_NO":999,"REV_AT_EPOCH":21170,"BSTAR":0.00042546,"MEAN_MOTION_DOT":0.00029784,"MEAN_MOTION_DDOT":0},{"OBJECT_NAME":"CZ-2C R/B","OBJECT_ID":"2022-132E","EPOCH":"2026-03-18T23:30:19.708992","MEAN_MOTION":15.62685246,"ECCENTRICITY":0.00196684,"INCLINATION":97.2955,"RA_OF_ASC_NODE":81.5839,"ARG_OF_PERICENTER":61.8989,"MEAN_ANOMALY":298.4254,"EPHEMERIS_TYPE":0,"CLASSIFICATION_TYPE":"U","NORAD_CAT_ID":54039,"ELEMENT_SET_NO":999,"REV_AT_EPOCH":19182,"BSTAR":0.00042931556,"MEAN_MOTION_DOT":0.00038816,"MEAN_MOTION_DDOT":0},{"OBJECT_NAME":"GSLV R/B","OBJECT_ID":"2022-138AN","EPOCH":"2026-03-19T17:58:26.267232","MEAN_MOTION":14.96838203,"ECCENTRICITY":0.0023946,"INCLINATION":87.3871,"RA_OF_ASC_NODE":162.9954,"ARG_OF_PERICENTER":113.167,"MEAN_ANOMALY":247.2088,"EPHEMERIS_TYPE":0,"CLASSIFICATION_TYPE":"U","NORAD_CAT_ID":54149,"ELEMENT_SET_NO":999,"REV_AT_EPOCH":18543,"BSTAR":0.0001774,"MEAN_MOTION_DOT":2.072e-5,"MEAN_MOTION_DDOT":0},{"OBJECT_NAME":"XRISM","OBJECT_ID":"2023-137A","EPOCH":"2026-03-19T19:26:18.464352","MEAN_MOTION":15.11607413,"ECCENTRICITY":0.0007928,"INCLINATION":31.0011,"RA_OF_ASC_NODE":218.1974,"ARG_OF_PERICENTER":140.8254,"MEAN_ANOMALY":219.2959,"EPHEMERIS_TYPE":0,"CLASSIFICATION_TYPE":"U","NORAD_CAT_ID":57800,"ELEMENT_SET_NO":999,"REV_AT_EPOCH":13932,"BSTAR":0.00027027,"MEAN_MOTION_DOT":4.804e-5,"MEAN_MOTION_DDOT":0},{"OBJECT_NAME":"ACS3","OBJECT_ID":"2024-077B","EPOCH":"2026-03-19T19:01:38.989632","MEAN_MOTION":13.90064816,"ECCENTRICITY":0.0068354,"INCLINATION":97.2017,"RA_OF_ASC_NODE":17.6345,"ARG_OF_PERICENTER":52.9341,"MEAN_ANOMALY":307.8047,"EPHEMERIS_TYPE":0,"CLASSIFICATION_TYPE":"U","NORAD_CAT_ID":59588,"ELEMENT_SET_NO":999,"REV_AT_EPOCH":9560,"BSTAR":0.019859,"MEAN_MOTION_DOT":0.00025023,"MEAN_MOTION_DDOT":0},{"OBJECT_NAME":"SZ-21 MODULE","OBJECT_ID":"2025-246C","EPOCH":"2026-03-19T13:23:07.005408","MEAN_MOTION":15.69284939,"ECCENTRICITY":3.86e-5,"INCLINATION":41.4733,"RA_OF_ASC_NODE":142.5807,"ARG_OF_PERICENTER":277.1861,"MEAN_ANOMALY":82.8937,"EPHEMERIS_TYPE":0,"CLASSIFICATION_TYPE":"U","NORAD_CAT_ID":66515,"ELEMENT_SET_NO":999,"REV_AT_EPOCH":1962,"BSTAR":0.00023011,"MEAN_MOTION_DOT":0.00027418,"MEAN_MOTION_DDOT":0}]
